KUIPER-00167            
1 65780U 25217U   25344.16668980  .00044784  00000+0  39509-2 0  9999
2 65780  51.8892  82.2237 0011292 335.2863   8.2035 14.95923264  5749
KUIPER-00168            
1 65781U 25217V   25343.68993248  .00083080  00000+0  21126-2 0  9992
2 65781  51.8719  78.5640 0000979 320.4690  39.6226 15.38886203 11586
KUIPER-00169            
1 65782U 25217W   25343.66948220  .00060164  00000+0  16984-2 0  9995
2 65782  51.8745  79.1738 0005054 338.8924  21.1852 15.35792037 11571
KUIPER-00170            
1 65783U 25217X   25344.00002315 -.00932591  00000+0 -42683-1 0  9999
2 65783  51.8791  79.2206 0008568 351.1712 314.6317 15.22588527  5561
KUIPER-00171            
1 65784U 25217Y   25344.00002315  .00020243  00000+0  17501-3 0  9993
2 65784  51.8571  70.1147 0009936 359.7496  28.4616 15.69138737  5685
KUIPER-00172            
1 65785U 25217Z   25343.57405970  .00048608  00000+0  12538-2 0  9998
2 65785  51.8721  79.2829 0005068 335.2335  24.8408 15.38681748 11567
KUIPER-00173            
1 65786U 25217AA  25343.67508513  .00068420  00000+0  20580-2 0  9997
2 65786  51.8737  79.1764 0003678 301.4657  58.5968 15.33741765 11576
KUIPER-00174            
1 65787U 25217AB  25343.57029647  .00047323  00000+0  12360-2 0  9999
2 65787  51.8716  79.2568 0002933 289.1586  70.9083 15.38316707 11567
